******** Week 220 almanac for PRN-104********
ID:                             104 
Health:                         0 
Eccentricity:                   0.00000000000000e+00
Time of Applicability(s):       259200
Orbital Inclination(rad):       9.77384381116825e-01
Rate of Right Ascen(r/s):       0.00000000000000e+00
SQRT(A)  (m 1/2):               5.44058820349418e+03
Right Ascen at Week(rad):       1.48352986419518e+00
Argument of Perigee(rad):       0.00000000000000e+00
Mean Anom(rad):                 -6.40535835481919e-01
Af0(s):                         0.00000000000000e+00
Af1(s/s):                       0.00000000000000e+00
week:                           220
******** Week 220 almanac for PRN-105********
ID:                             105 
Health:                         0 
Eccentricity:                   0.00000000000000e+00
Time of Applicability(s):       259200
Orbital Inclination(rad):       9.77384381116825e-01
Rate of Right Ascen(r/s):       0.00000000000000e+00
SQRT(A)  (m 1/2):               5.44058820349418e+03
Right Ascen at Week(rad):       3.57792496658837e+00
Argument of Perigee(rad):       0.00000000000000e+00
Mean Anom(rad):                 1.39626340159546e-02
Af0(s):                         0.00000000000000e+00
Af1(s/s):                       0.00000000000000e+00
week:                           220
******** Week 220 almanac for PRN-106********
ID:                             106 
Health:                         0 
Eccentricity:                   0.00000000000000e+00
Time of Applicability(s):       259200
Orbital Inclination(rad):       9.77384381116825e-01
Rate of Right Ascen(r/s):       0.00000000000000e+00
SQRT(A)  (m 1/2):               5.44058820349418e+03
Right Ascen at Week(rad):       3.57792496658837e+00
Argument of Perigee(rad):       0.00000000000000e+00
Mean Anom(rad):                 -3.12763001957384e+00
Af0(s):                         0.00000000000000e+00
Af1(s/s):                       0.00000000000000e+00
week:                           220
******** Week 220 almanac for PRN-107********
ID:                             107 
Health:                         0 
Eccentricity:                   0.00000000000000e+00
Time of Applicability(s):       259200
Orbital Inclination(rad):       9.77384381116825e-01
Rate of Right Ascen(r/s):       0.00000000000000e+00
SQRT(A)  (m 1/2):               5.44058820349418e+03
Right Ascen at Week(rad):       5.67232006898157e+00
Argument of Perigee(rad):       0.00000000000000e+00
Mean Anom(rad):                 1.84655834861000e+00
Af0(s):                         0.00000000000000e+00
Af1(s/s):                       0.00000000000000e+00
week:                           220
******** Week 220 almanac for PRN-110********
ID:                             110 
Health:                         0 
Eccentricity:                   0.00000000000000e+00
Time of Applicability(s):       259200
Orbital Inclination(rad):       9.77384381116825e-01
Rate of Right Ascen(r/s):       0.00000000000000e+00
SQRT(A)  (m 1/2):               5.44058820349418e+03
Right Ascen at Week(rad):       1.48352986419518e+00
Argument of Perigee(rad):       0.00000000000000e+00
Mean Anom(rad):                 -1.81863308057809e+00
Af0(s):                         0.00000000000000e+00
Af1(s/s):                       0.00000000000000e+00
week:                           220
******** Week 220 almanac for PRN-111********
ID:                             111 
Health:                         0 
Eccentricity:                   0.00000000000000e+00
Time of Applicability(s):       259200
Orbital Inclination(rad):       9.77384381116825e-01
Rate of Right Ascen(r/s):       0.00000000000000e+00
SQRT(A)  (m 1/2):               5.44058820349418e+03
Right Ascen at Week(rad):       3.14159265358979e+00
Argument of Perigee(rad):       0.00000000000000e+00
Mean Anom(rad):                 3.49065850398866e-01
Af0(s):                         0.00000000000000e+00
Af1(s/s):                       0.00000000000000e+00
week:                           220
******** Week 220 almanac for PRN-113********
ID:                             113 
Health:                         0 
Eccentricity:                   0.00000000000000e+00
Time of Applicability(s):       259200
Orbital Inclination(rad):       9.77384381116825e-01
Rate of Right Ascen(r/s):       0.00000000000000e+00
SQRT(A)  (m 1/2):               5.44058820349418e+03
Right Ascen at Week(rad):       3.14159265358979e+00
Argument of Perigee(rad):       0.00000000000000e+00
Mean Anom(rad):                 3.49065850398866e-01
Af0(s):                         0.00000000000000e+00
Af1(s/s):                       0.00000000000000e+00
week:                           220
******** Week 220 almanac for PRN-114********
ID:                             114 
Health:                         0 
Eccentricity:                   0.00000000000000e+00
Time of Applicability(s):       259200
Orbital Inclination(rad):       9.77384381116825e-01
Rate of Right Ascen(r/s):       0.00000000000000e+00
SQRT(A)  (m 1/2):               5.44058820349418e+03
Right Ascen at Week(rad):       3.14159265358979e+00
Argument of Perigee(rad):       0.00000000000000e+00
Mean Anom(rad):                 3.49065850398866e-01
Af0(s):                         0.00000000000000e+00
Af1(s/s):                       0.00000000000000e+00
week:                           220
******** Week 220 almanac for PRN-116********
ID:                             116 
Health:                         0 
Eccentricity:                   0.00000000000000e+00
Time of Applicability(s):       259200
Orbital Inclination(rad):       9.77384381116824e-01
Rate of Right Ascen(r/s):       0.00000000000000e+00
SQRT(A)  (m 1/2):               5.44058820349418e+03
Right Ascen at Week(rad):       3.14159265358979e+00
Argument of Perigee(rad):       0.00000000000000e+00
Mean Anom(rad):                 3.49065850398866e-01
Af0(s):                         0.00000000000000e+00
Af1(s/s):                       0.00000000000000e+00
week:                           220
